ORBCOMM FM20            
1 25416U 98046D   24326.57074190  .00002417  00000+0  86695-3 0  9995
2 25416  44.9938  83.8793 0001843 233.3582 126.7096 14.36312800374404
ORBCOMM FM16            
1 25417U 98046E   24326.65178809  .00003571  00000+0  12238-2 0  9990
2 25417  44.9936  77.5465 0004039 301.7982  58.2472 14.37673879374597
ORBCOMM FM15            
1 25418U 98046F   24326.57958195  .00002743  00000+0  95699-3 0  9999
2 25418  44.9969  82.4463 0003523 300.8482  59.2019 14.37353142374360
ORBCOMM FM14            
1 25419U 98046G   24326.64414609  .00003140  00000+0  10826-2 0  9995
2 25419  44.9957  80.9127 0003033 280.3809  79.6697 14.37633864374550
ORBCOMM FM13            
1 25420U 98046H   24326.52458652  .00002808  00000+0  99283-3 0  9995
2 25420  44.9969  87.6158 0004920 291.6601  68.3723 14.36635742373363
ORBCOMM FM21            
1 25475U 98053A   24326.14471037  .00001688  00000+0  61852-3 0  9999
2 25475  45.0070 174.0968 0000603 228.6518 131.4278 14.36449174367327
ORBCOMM FM22            
1 25476U 98053B   24326.59337753  .00002212  00000+0  78303-3 0  9998
2 25476  45.0055 168.3118 0002433 242.0078 118.0524 14.37225670367394
ORBCOMM FM23            
1 25477U 98053C   24326.58295274  .00001788  00000+0  65108-3 0  9995
2 25477  45.0069 174.3711 0001588 240.9503 119.1185 14.36536234367537
